1 25994U 99068A   15002.10622162 -.00010290  00000-0 -22790-2 0  9759
2 25994  98.2074  78.9859 0001342  97.3908 262.7439 14.57079636800035
1 25994U 99068A   15002.44957755 -.00011270  00000-0 -24979-2 0  9766
2 25994  98.2075  79.3243 0001324  97.4407 262.6918 14.57070694800084
1 25994U 99068A   15002.72426476 -.00011562  00000-0 -25635-2 0  9773
2 25994  98.2073  79.5948 0001388  99.3169 260.8205 14.57064107800128
1 25994U 99068A   15003.06761484 -.00006057  00000-0 -13365-2 0  9783
2 25994  98.2076  79.9333 0001481  95.1887 264.9645 14.57077442800172
1 25994U 99068A   15003.41096220 -.00000952  00000-0 -20131-3 0  9790
2 25994  98.2075  80.2718 0001425  95.6926 264.4504 14.57088545800221
1 25994U 99068A   15003.75431301  .00000617  00000-0  14694-3 0  9805
2 25994  98.2077  80.6095 0001466  92.3976 267.7414 14.57092512800279
1 25994U 99068A   15004.09766505  .00000916  00000-0  21346-3 0  9815
2 25994  98.2075  80.9478 0001466  91.5587 268.5799 14.57093702800327
1 25994U 99068A   15004.44101593  .00001079  00000-0  24956-3 0  9826
2 25994  98.2073  81.2861 0001448  91.1265 269.0094 14.57095042800372
1 25994U 99068A   15004.71569724  .00001055  00000-0  24423-3 0  9834
2 25994  98.2074  81.5566 0001441  89.4374 270.6982 14.57095542800416
1 25994U 99068A   15004.92170827  .00000907  00000-0  21141-3 0  9849
2 25994  98.2073  81.7597 0001439  87.7970 272.3361 14.57095246800445
1 25994U 99068A   15005.33374466 -.00002833  00000-0  00000+0 0  9859
2 25994  98.2069  82.1670 0001390  96.0356 264.1502 14.57082143800509
1 25994U 99068A   15005.40240164  .00000752  00000-0  17698-3 0  9867
2 25994  98.2073  82.2333 0001440  88.4447 271.6914 14.57095249800515
1 25994U 99068A   15005.67708292  .00000681  00000-0  16123-3 0  9871
2 25994  98.2072  82.5039 0001446  87.3999 272.7350 14.57095313800558
1 25994U 99068A   15006.08910599  .00000506  00000-0  12235-3 0  9889
2 25994  98.2072  82.9098 0001450  87.6000 272.5367 14.57094811800613
1 25994U 99068A   15006.22644661  .00000501  00000-0  12122-3 0  9890
2 25994  98.2073  83.0451 0001446  87.8459 272.2908 14.57094955800633
1 25994U 99068A   15006.36380590 -.00003936  00000-0  00000+0 0  9909
2 25994  98.2071  83.1828 0001316  94.3822 265.8029 14.57077694800658
1 25994U 99068A   15018.86171352  .00000465  00000-0  11317-3 0   272
2 25994  98.2045  95.4921 0001433  89.4794 270.6562 14.57110163802479
1 25994U 99068A   15019.20506188  .00000424  00000-0  10426-3 0   286
2 25994  98.2046  95.8304 0001428  91.1799 268.9572 14.57110302802520
1 25994U 99068A   15019.54840962  .00000410  00000-0  10107-3 0   296
2 25994  98.2044  96.1687 0001439  93.7627 266.3745 14.57110648802578
